[{"OBJECT_NAME":"TIANHUI 6B","OBJECT_ID":"2023-030D","EPOCH":"2026-03-09T23:26:56.388192","MEAN_MOTION":14.01332355,"ECCENTRICITY":0.00011349,"INCLINATION":99.0142,"RA_OF_ASC_NODE":78.4435,"ARG_OF_PERICENTER":126.6393,"MEAN_ANOMALY":233.4876,"EPHEMERIS_TYPE":0,"CLASSIFICATION_TYPE":"U","NORAD_CAT_ID":55839,"ELEMENT_SET_NO":999,"REV_AT_EPOCH":15349,"BSTAR":-9.0839833e-5,"MEAN_MOTION_DOT":-1.81e-6,"MEAN_MOTION_DDOT":0},{"OBJECT_NAME":"COSMOS 839 DEB","OBJECT_ID":"1976-067AF","EPOCH":"2026-03-09T21:59:49.263360","MEAN_MOTION":12.55291161,"ECCENTRICITY":0.07407867,"INCLINATION":65.6659,"RA_OF_ASC_NODE":336.2526,"ARG_OF_PERICENTER":253.2552,"MEAN_ANOMALY":98.5947,"EPHEMERIS_TYPE":0,"CLASSIFICATION_TYPE":"U","NORAD_CAT_ID":10454,"ELEMENT_SET_NO":999,"REV_AT_EPOCH":26972,"BSTAR":-0.00020497463,"MEAN_MOTION_DOT":-1.55e-6,"MEAN_MOTION_DDOT":0}]
